start=new Date('2023-04-16T00:00:00.000Z').valueOf();
sats=[{"CLASSIFICATION_TYPE":"U","GP_ID":"230127624","OBJECT_TYPE":"PAYLOAD","FILE":"3888171","TIME_SYSTEM":"UTC","OBJECT_NAME":"STARLINK-1402","MEAN_ANOMALY":"269.4079","SEMIMAJOR_AXIS":"6924.533","EPOCH":"2023-04-15T18:41:52.510272","ELEMENT_SET_NO":"999","REF_FRAME":"TEME","PERIAPSIS":"545.379","RA_OF_ASC_NODE":"130.2394","MEAN_MOTION_DDOT":"0.0000000000000","MEAN_MOTION_DOT":"0.00018082","BSTAR":"0.00122090000000","SITE":"AFETR","MEAN_ELEMENT_THEORY":"SGP4","MEAN_MOTION":"15.06666134","TLE_LINE2":"2 45685  53.0530 130.2394 0001471  90.7079 269.4079 15.06666134159272","EPHEMERIS_TYPE":"0","TLE_LINE1":"1 45685U 20035AE  23105.77907998  .00018082  00000-0  12209-2 0  9990","APOAPSIS":"547.417","INCLINATION":"53.0530","REV_AT_EPOCH":"15927","ARG_OF_PERICENTER":"90.7079","OBJECT_ID":"2020-035AE","PERIOD":"95.575","COUNTRY_CODE":"US","DECAY_DATE":null,"NORAD_CAT_ID":"45685","RCS_SIZE":"LARGE","ECCENTRICITY":"0.00014710","LAUNCH_DATE":"2020-06-04","CENTER_NAME":"EARTH"},{"RA_OF_ASC_NODE":"130.2867","MEAN_MOTION_DOT":"0.00018001","MEAN_MOTION_DDOT":"0.0000000000000","BSTAR":"0.00122250000000","SITE":"AFETR","MEAN_ELEMENT_THEORY":"SGP4","ELEMENT_SET_NO":"999","REF_FRAME":"TEME","PERIAPSIS":"546.117","OBJECT_NAME":"STARLINK-1404","SEMIMAJOR_AXIS":"6925.181","MEAN_ANOMALY":"280.1882","EPOCH":"2023-04-15T18:32:11.082336","CLASSIFICATION_TYPE":"U","GP_ID":"230127871","FILE":"3888171","OBJECT_TYPE":"PAYLOAD","TIME_SYSTEM":"UTC","DECAY_DATE":null,"NORAD_CAT_ID":"45686","RCS_SIZE":"LARGE","LAUNCH_DATE":"2020-06-04","ECCENTRICITY":"0.00013410","CENTER_NAME":"EARTH","ARG_OF_PERICENTER":"79.9258","OBJECT_ID":"2020-035AF","PERIOD":"95.589","COUNTRY_CODE":"US","TLE_LINE1":"1 45686U 20035AF  23105.77235049  .00018001  00000-0  12225-2 0  9991","EPHEMERIS_TYPE":"0","APOAPSIS":"547.975","INCLINATION":"53.0533","REV_AT_EPOCH":"15927","MEAN_MOTION":"15.06454681","TLE_LINE2":"2 45686  53.0533 130.2867 0001341  79.9258 280.1882 15.06454681159279"},{"ELEMENT_SET_NO":"999","REF_FRAME":"TEME","PERIAPSIS":"498.415","RA_OF_ASC_NODE":"120.5563","MEAN_MOTION_DOT":"0.00010962","MEAN_MOTION_DDOT":"0.0000000000000","BSTAR":"0.00050261000000","SITE":"AFETR","MEAN_ELEMENT_THEORY":"SGP4","CLASSIFICATION_TYPE":"U","GP_ID":"230127124","OBJECT_TYPE":"PAYLOAD","FILE":"3888171","TIME_SYSTEM":"UTC","OBJECT_NAME":"STARLINK-1408","MEAN_ANOMALY":"345.9573","SEMIMAJOR_AXIS":"6881.134","EPOCH":"2023-04-15T18:08:03.526368","ARG_OF_PERICENTER":"14.1608","OBJECT_ID":"2020-035AH","PERIOD":"94.678","COUNTRY_CODE":"US","DECAY_DATE":null,"NORAD_CAT_ID":"45688","RCS_SIZE":"LARGE","CENTER_NAME":"EARTH","LAUNCH_DATE":"2020-06-04","ECCENTRICITY":"0.00066630","MEAN_MOTION":"15.20942165","TLE_LINE2":"2 45688  53.0499 120.5563 0006663  14.1608 345.9573 15.20942165159406","TLE_LINE1":"1 45688U 20035AH  23105.75559637  .00010962  00000-0  50261-3 0  9994","APOAPSIS":"507.584","EPHEMERIS_TYPE":"0","INCLINATION":"53.0499","REV_AT_EPOCH":"15940"},{"COUNTRY_CODE":"US","PERIOD":"95.592","OBJECT_ID":"2020-035AJ","ARG_OF_PERICENTER":"89.3218","DECAY_DATE":null,"NORAD_CAT_ID":"45689","ECCENTRICITY":"0.00013060","LAUNCH_DATE":"2020-06-04","CENTER_NAME":"EARTH","RCS_SIZE":"LARGE","MEAN_MOTION":"15.06403586","TLE_LINE2":"2 45689  53.0523 130.2000 0001306  89.3218 270.7921 15.06403586159189","REV_AT_EPOCH":"15918","INCLINATION":"53.0523","APOAPSIS":"548.107","TLE_LINE1":"1 45689U 20035AJ  23105.79080120  .00002338  00000-0  17578-3 0  9997","EPHEMERIS_TYPE":"0","PERIAPSIS":"546.298","ELEMENT_SET_NO":"999","REF_FRAME":"TEME","BSTAR":"0.00017578000000","MEAN_MOTION_DDOT":"0.0000000000000","MEAN_MOTION_DOT":"0.00002338","RA_OF_ASC_NODE":"130.2000","MEAN_ELEMENT_THEORY":"SGP4","SITE":"AFETR","GP_ID":"230126874","CLASSIFICATION_TYPE":"U","TIME_SYSTEM":"UTC","FILE":"3888171","OBJECT_TYPE":"PAYLOAD","MEAN_ANOMALY":"270.7921","SEMIMAJOR_AXIS":"6925.338","OBJECT_NAME":"STARLINK-1413","EPOCH":"2023-04-15T18:58:45.223680"},{"ELEMENT_SET_NO":"999","REF_FRAME":"TEME","PERIAPSIS":"546.196","SITE":"AFETR","MEAN_ELEMENT_THEORY":"SGP4","RA_OF_ASC_NODE":"130.1930","BSTAR":"0.00065735000000","MEAN_MOTION_DOT":"0.00009522","MEAN_MOTION_DDOT":"0.0000000000000","TIME_SYSTEM":"UTC","FILE":"3888171","OBJECT_TYPE":"PAYLOAD","GP_ID":"230128123","CLASSIFICATION_TYPE":"U","EPOCH":"2023-04-15T19:08:03.555168","OBJECT_NAME":"STARLINK-1414","MEAN_ANOMALY":"277.5171","SEMIMAJOR_AXIS":"6925.367","PERIOD":"95.593","OBJECT_ID":"2020-035AK","ARG_OF_PERICENTER":"82.5988","COUNTRY_CODE":"US","RCS_SIZE":"LARGE","CENTER_NAME":"EARTH","LAUNCH_DATE":"2020-06-04","ECCENTRICITY":"0.00014960","DECAY_DATE":null,"NORAD_CAT_ID":"45690","TLE_LINE2":"2 45690  53.0545 130.1930 0001496  82.5988 277.5171 15.06394100159212","MEAN_MOTION":"15.06394100","INCLINATION":"53.0545","TLE_LINE1":"1 45690U 20035AK  23105.79726337  .00009522  00000-0  65735-3 0  9996","APOAPSIS":"548.268","EPHEMERIS_TYPE":"0","REV_AT_EPOCH":"15921"},{"NORAD_CAT_ID":"45691","DECAY_DATE":null,"CENTER_NAME":"EARTH","LAUNCH_DATE":"2020-06-04","ECCENTRICITY":"0.00010300","RCS_SIZE":"LARGE","COUNTRY_CODE":"US","ARG_OF_PERICENTER":"73.1032","PERIOD":"95.592","OBJECT_ID":"2020-035AL","REV_AT_EPOCH":"15927","EPHEMERIS_TYPE":"0","TLE_LINE1":"1 45691U 20035AL  23105.77606158  .00007462  00000-0  51914-3 0  9998","APOAPSIS":"547.898","INCLINATION":"53.0518","MEAN_MOTION":"15.06409516","TLE_LINE2":"2 45691  53.0518 130.2662 0001030  73.1032 287.0070 15.06409516159274","MEAN_MOTION_DOT":"0.00007462","MEAN_MOTION_DDOT":"0.0000000000000","BSTAR":"0.00051914000000","RA_OF_ASC_NODE":"130.2662","MEAN_ELEMENT_THEORY":"SGP4","SITE":"AFETR","PERIAPSIS":"546.471","REF_FRAME":"TEME","ELEMENT_SET_NO":"999","SEMIMAJOR_AXIS":"6925.319","MEAN_ANOMALY":"287.0070","OBJECT_NAME":"STARLINK-1415","EPOCH":"2023-04-15T18:37:31.720512","CLASSIFICATION_TYPE":"U","GP_ID":"230128370","OBJECT_TYPE":"PAYLOAD","FILE":"3888171","TIME_SYSTEM":"UTC"},{"MEAN_ANOMALY":"249.3606","SEMIMAJOR_AXIS":"6925.345","OBJECT_NAME":"STARLINK-1416","EPOCH":"2023-04-15T18:26:54.202560","CLASSIFICATION_TYPE":"U","GP_ID":"230126625","FILE":"3888171","OBJECT_TYPE":"PAYLOAD","TIME_SYSTEM":"UTC","MEAN_MOTION_DDOT":"0.0000000000000","MEAN_MOTION_DOT":"-0.00002068","BSTAR":"-0.00012000000000","RA_OF_ASC_NODE":"130.3023","MEAN_ELEMENT_THEORY":"SGP4","SITE":"AFETR","PERIAPSIS":"546.367","ELEMENT_SET_NO":"999","REF_FRAME":"TEME","REV_AT_EPOCH":"15926","APOAPSIS":"548.053","TLE_LINE1":"1 45692U 20035AM  23105.76868290 -.00002068  00000-0 -12000-3 0  9997","EPHEMERIS_TYPE":"0","INCLINATION":"53.0541","MEAN_MOTION":"15.06401173","TLE_LINE2":"2 45692  53.0541 130.3023 0001217 110.7514 249.3606 15.06401173159269","NORAD_CAT_ID":"45692","DECAY_DATE":null,"CENTER_NAME":"EARTH","LAUNCH_DATE":"2020-06-04","ECCENTRICITY":"0.00012170","RCS_SIZE":"LARGE","COUNTRY_CODE":"US","ARG_OF_PERICENTER":"110.7514","OBJECT_ID":"2020-035AM","PERIOD":"95.592"},{"ELEMENT_SET_NO":"999","REF_FRAME":"TEME","PERIAPSIS":"545.925","RA_OF_ASC_NODE":"130.2159","BSTAR":"0.00007329600000","MEAN_MOTION_DOT":"0.00000810","MEAN_MOTION_DDOT":"0.0000000000000","SITE":"AFETR","MEAN_ELEMENT_THEORY":"SGP4","GP_ID":"230127373","CLASSIFICATION_TYPE":"U","TIME_SYSTEM":"UTC","FILE":"3888171","OBJECT_TYPE":"PAYLOAD","OBJECT_NAME":"STARLINK-1417","MEAN_ANOMALY":"284.6363","SEMIMAJOR_AXIS":"6925.341","EPOCH":"2023-04-15T18:53:27.160224","PERIOD":"95.592","OBJECT_ID":"2020-035AN","ARG_OF_PERICENTER":"75.4831","COUNTRY_CODE":"US","DECAY_DATE":null,"NORAD_CAT_ID":"45693","RCS_SIZE":"LARGE","LAUNCH_DATE":"2020-06-04","ECCENTRICITY":"0.00018500","CENTER_NAME":"EARTH","MEAN_MOTION":"15.06402308","TLE_LINE2":"2 45693  53.0533 130.2159 0001850  75.4831 284.6363 15.06402308159265","INCLINATION":"53.0533","TLE_LINE1":"1 45693U 20035AN  23105.78711991  .00000810  00000-0  73296-4 0  9991","APOAPSIS":"548.488","EPHEMERIS_TYPE":"0","REV_AT_EPOCH":"15926"},{"COUNTRY_CODE":"US","ARG_OF_PERICENTER":"17.6217","PERIOD":"94.414","OBJECT_ID":"2020-035AP","LAUNCH_DATE":"2020-06-04","CENTER_NAME":"EARTH","ECCENTRICITY":"0.00069110","RCS_SIZE":"LARGE","DECAY_DATE":null,"NORAD_CAT_ID":"45694","TLE_LINE2":"2 45694  53.0499 120.9852 0006911  17.6217 342.5019 15.25199260159355","MEAN_MOTION":"15.25199260","REV_AT_EPOCH":"15935","TLE_LINE1":"1 45694U 20035AP  23105.32022777  .00083268  00000-0  32488-2 0  9993","APOAPSIS":"494.936","EPHEMERIS_TYPE":"0","INCLINATION":"53.0499","PERIAPSIS":"485.442","ELEMENT_SET_NO":"999","REF_FRAME":"TEME","MEAN_ELEMENT_THEORY":"SGP4","SITE":"AFETR","MEAN_MOTION_DOT":"0.00083268","MEAN_MOTION_DDOT":"0.0000000000000","BSTAR":"0.00324880000000","RA_OF_ASC_NODE":"120.9852","FILE":"3887974","OBJECT_TYPE":"PAYLOAD","TIME_SYSTEM":"UTC","CLASSIFICATION_TYPE":"U","GP_ID":"230096861","EPOCH":"2023-04-15T07:41:07.679328","SEMIMAJOR_AXIS":"6868.324","MEAN_ANOMALY":"342.5019","OBJECT_NAME":"STARLINK-1419"},{"SEMIMAJOR_AXIS":"6925.317","MEAN_ANOMALY":"274.1702","OBJECT_NAME":"STARLINK-1420","EPOCH":"2023-04-15T17:19:11.845632","CLASSIFICATION_TYPE":"U","GP_ID":"230127872","OBJECT_TYPE":"PAYLOAD","FILE":"3888171","TIME_SYSTEM":"UTC","MEAN_MOTION_DOT":"0.00004560","MEAN_MOTION_DDOT":"0.0000000000000","BSTAR":"0.00032470000000","RA_OF_ASC_NODE":"110.4989","MEAN_ELEMENT_THEORY":"SGP4","SITE":"AFETR","PERIAPSIS":"546.289","ELEMENT_SET_NO":"999","REF_FRAME":"TEME","REV_AT_EPOCH":"15954","EPHEMERIS_TYPE":"0","TLE_LINE1":"1 45695U 20035AQ  23105.72166488  .00004560  00000-0  32470-3 0  9996","APOAPSIS":"548.075","INCLINATION":"53.0526","MEAN_MOTION":"15.06410342","TLE_LINE2":"2 45695  53.0526 110.4989 0001289  85.9434 274.1702 15.06410342159540","DECAY_DATE":null,"NORAD_CAT_ID":"45695","CENTER_NAME":"EARTH","LAUNCH_DATE":"2020-06-04","ECCENTRICITY":"0.00012890","RCS_SIZE":"LARGE","COUNTRY_CODE":"US","ARG_OF_PERICENTER":"85.9434","PERIOD":"95.591","OBJECT_ID":"2020-035AQ"}];
